ANDESITE                
1 45726U 20037D   26068.46720933  .00004478  00000+0  31876-3 0  9992
2 45726  97.7890 260.5174 0009953 141.6473 218.5462 15.05115692310662
STARLINK-34631          
1 64855U 25152P   26068.60121625  .00003102  00000+0  21908-3 0  9996
2 64855  97.6024 285.4132 0002118  84.8452 275.3017 15.05649076 35406
