[{"OBJECT_NAME":"ANDESITE","OBJECT_ID":"2020-037D","EPOCH":"2026-03-09T11:12:46.886112","MEAN_MOTION":15.05115692,"ECCENTRICITY":0.00099538,"INCLINATION":97.789,"RA_OF_ASC_NODE":260.5174,"ARG_OF_PERICENTER":141.6473,"MEAN_ANOMALY":218.5462,"EPHEMERIS_TYPE":0,"CLASSIFICATION_TYPE":"U","NORAD_CAT_ID":45726,"ELEMENT_SET_NO":999,"REV_AT_EPOCH":31066,"BSTAR":0.00031876291,"MEAN_MOTION_DOT":4.478e-5,"MEAN_MOTION_DDOT":0},{"OBJECT_NAME":"STARLINK-34631","OBJECT_ID":"2025-152P","EPOCH":"2026-03-09T14:25:45.084000","MEAN_MOTION":15.05649076,"ECCENTRICITY":0.0002118,"INCLINATION":97.6024,"RA_OF_ASC_NODE":285.4132,"ARG_OF_PERICENTER":84.8452,"MEAN_ANOMALY":275.3017,"EPHEMERIS_TYPE":0,"CLASSIFICATION_TYPE":"U","NORAD_CAT_ID":64855,"ELEMENT_SET_NO":999,"REV_AT_EPOCH":3540,"BSTAR":0.00021908,"MEAN_MOTION_DOT":3.102e-5,"MEAN_MOTION_DDOT":0}]
